{
  "type": "FeatureCollection",
  "features": [
    {
      "type": "Feature",
      "properties": {
        "norad_id": 66918,
        "name": "HULIANWANG DIGUI 14D",
        "group": "last-30-days",
        "lat": 42.966597858386734,
        "lon": -98.13532155947303,
        "alt_km": 872.6388860110328,
        "timestamp": "2025-12-08T19:31:47.637881+00:00",
        "meta_object_name": "HULIANWANG DIGUI 14D",
        "meta_object_id": "2025-285D",
        "meta_epoch": "2025-12-08T10:26:43.431360",
        "meta_mean_motion": 14.05959486,
        "meta_eccentricity": 0.0008191,
        "meta_inclination": 50.0064,
        "meta_ra_of_asc_node": 134.8446,
        "meta_arg_of_pericenter": 270.94,
        "meta_mean_anomaly": 89.0567,
        "meta_ephemeris_type": 0,
        "meta_classification_type": "U",
        "meta_norad_cat_id": 66918,
        "meta_element_set_no": 999,
        "meta_rev_at_epoch": 30,
        "meta_bstar": 1.1296e-05,
        "meta_mean_motion_dot": -1.34e-06,
        "meta_mean_motion_ddot": 0,
        "tle_line1": "1 66918U 25285D   25342.43522490 -.00000134  00000+0  11296-4 0  9998",
        "tle_line2": "2 66918  50.0064 134.8446 0008191 270.9400  89.0567 14.05959486   307"
      },
      "geometry": {
        "type": "Point",
        "coordinates": [
          -98.13532155947303,
          42.966597858386734
        ]
      }
    },
    {
      "type": "Feature",
      "properties": {
        "norad_id": 66919,
        "name": "HULIANWANG DIGUI 14E",
        "group": "last-30-days",
        "lat": 42.59974750379977,
        "lon": -97.19893780888482,
        "alt_km": 873.8319842368865,
        "timestamp": "2025-12-08T19:31:47.637890+00:00",
        "meta_object_name": "HULIANWANG DIGUI 14E",
        "meta_object_id": "2025-285E",
        "meta_epoch": "2025-12-08T13:51:11.269728",
        "meta_mean_motion": 14.05836701,
        "meta_eccentricity": 0.0008492,
        "meta_inclination": 50.0147,
        "meta_ra_of_asc_node": 134.2716,
        "meta_arg_of_pericenter": 289.3881,
        "meta_mean_anomaly": 70.6107,
        "meta_ephemeris_type": 0,
        "meta_classification_type": "U",
        "meta_norad_cat_id": 66919,
        "meta_element_set_no": 999,
        "meta_rev_at_epoch": 32,
        "meta_bstar": -1.2151e-05,
        "meta_mean_motion_dot": -1.72e-06,
        "meta_mean_motion_ddot": 0,
        "tle_line1": "1 66919U 25285E   25342.57721377 -.00000172  00000+0 -12151-4 0  9993",
        "tle_line2": "2 66919  50.0147 134.2716 0008492 289.3881  70.6107 14.05836701   327"
      },
      "geometry": {
        "type": "Point",
        "coordinates": [
          -97.19893780888482,
          42.59974750379977
        ]
      }
    },
    {
      "type": "Feature",
      "properties": {
        "norad_id": 66920,
        "name": "HULIANWANG DIGUI 14F",
        "group": "last-30-days",
        "lat": 42.071524066439295,
        "lon": -95.96755280035845,
        "alt_km": 870.4368604237206,
        "timestamp": "2025-12-08T19:31:47.637899+00:00",
        "meta_object_name": "HULIANWANG DIGUI 14F",
        "meta_object_id": "2025-285F",
        "meta_epoch": "2025-12-07T22:29:57.568704",
        "meta_mean_motion": 14.06197734,
        "meta_eccentricity": 0.0005825,
        "meta_inclination": 50.0078,
        "meta_ra_of_asc_node": 136.8777,
        "meta_arg_of_pericenter": 272.4455,
        "meta_mean_anomaly": 87.5784,
        "meta_ephemeris_type": 0,
        "meta_classification_type": "U",
        "meta_norad_cat_id": 66920,
        "meta_element_set_no": 999,
        "meta_rev_at_epoch": 23,
        "meta_bstar": 0.00011290179,
        "meta_mean_motion_dot": 3.4e-07,
        "meta_mean_motion_ddot": 0,
        "tle_line1": "1 66920U 25285F   25341.93747186  .00000034  00000+0  11290-3 0  9997",
        "tle_line2": "2 66920  50.0078 136.8777 0005825 272.4455  87.5784 14.06197734   239"
      },
      "geometry": {
        "type": "Point",
        "coordinates": [
          -95.96755280035845,
          42.071524066439295
        ]
      }
    },
    {
      "type": "Feature",
      "properties": {
        "norad_id": 66921,
        "name": "HULIANWANG DIGUI 14G",
        "group": "last-30-days",
        "lat": 42.425260635486545,
        "lon": -96.79262161014145,
        "alt_km": 872.4134049924915,
        "timestamp": "2025-12-08T19:31:47.637910+00:00",
        "meta_object_name": "HULIANWANG DIGUI 14G",
        "meta_object_id": "2025-285G",
        "meta_epoch": "2025-12-08T08:44:01.536288",
        "meta_mean_motion": 14.05883004,
        "meta_eccentricity": 0.0006916,
        "meta_inclination": 50.0115,
        "meta_ra_of_asc_node": 135.1359,
        "meta_arg_of_pericenter": 280.588,
        "meta_mean_anomaly": 79.4246,
        "meta_ephemeris_type": 0,
        "meta_classification_type": "U",
        "meta_norad_cat_id": 66921,
        "meta_element_set_no": 999,
        "meta_rev_at_epoch": 29,
        "meta_bstar": 1.2065e-05,
        "meta_mean_motion_dot": -1.32e-06,
        "meta_mean_motion_ddot": 0,
        "tle_line1": "1 66921U 25285G   25342.36390667 -.00000132  00000+0  12065-4 0  9996",
        "tle_line2": "2 66921  50.0115 135.1359 0006916 280.5880  79.4246 14.05883004   294"
      },
      "geometry": {
        "type": "Point",
        "coordinates": [
          -96.79262161014145,
          42.425260635486545
        ]
      }
    },
    {
      "type": "Feature",
      "properties": {
        "norad_id": 66922,
        "name": "HULIANWANG DIGUI 14H",
        "group": "last-30-days",
        "lat": 41.92521449954488,
        "lon": -95.62887310691363,
        "alt_km": 872.1892765670591,
        "timestamp": "2025-12-08T19:31:47.637920+00:00",
        "meta_object_name": "HULIANWANG DIGUI 14H",
        "meta_object_id": "2025-285H",
        "meta_epoch": "2025-12-08T08:43:47.873856",
        "meta_mean_motion": 14.05998696,
        "meta_eccentricity": 0.0006903,
        "meta_inclination": 50.0079,
        "meta_ra_of_asc_node": 135.1325,
        "meta_arg_of_pericenter": 286.9247,
        "meta_mean_anomaly": 73.0902,
        "meta_ephemeris_type": 0,
        "meta_classification_type": "U",
        "meta_norad_cat_id": 66922,
        "meta_element_set_no": 999,
        "meta_rev_at_epoch": 29,
        "meta_bstar": -1.047e-05,
        "meta_mean_motion_dot": -1.7e-06,
        "meta_mean_motion_ddot": 0,
        "tle_line1": "1 66922U 25285H   25342.36374854 -.00000170  00000+0 -10470-4 0  9998",
        "tle_line2": "2 66922  50.0079 135.1325 0006903 286.9247  73.0902 14.05998696   293"
      },
      "geometry": {
        "type": "Point",
        "coordinates": [
          -95.62887310691363,
          41.92521449954488
        ]
      }
    },
    {
      "type": "Feature",
      "properties": {
        "norad_id": 66923,
        "name": "HULIANWANG DIGUI 14J",
        "group": "last-30-days",
        "lat": 40.92254537429703,
        "lon": -93.4047471423277,
        "alt_km": 869.3738817268513,
        "timestamp": "2025-12-08T19:31:47.637930+00:00",
        "meta_object_name": "HULIANWANG DIGUI 14J",
        "meta_object_id": "2025-285J",
        "meta_epoch": "2025-12-07T22:29:36.786048",
        "meta_mean_motion": 14.06515715,
        "meta_eccentricity": 0.00053876,
        "meta_inclination": 50.0075,
        "meta_ra_of_asc_node": 136.8754,
        "meta_arg_of_pericenter": 280.8946,
        "meta_mean_anomaly": 79.1354,
        "meta_ephemeris_type": 0,
        "meta_classification_type": "U",
        "meta_norad_cat_id": 66923,
        "meta_element_set_no": 999,
        "meta_rev_at_epoch": 23,
        "meta_bstar": -4.7305e-07,
        "meta_mean_motion_dot": -1.53e-06,
        "meta_mean_motion_ddot": 0,
        "tle_line1": "1 66923U 25285J   25341.93723132 -.00000153  00000+0 -47305-6 0  9998",
        "tle_line2": "2 66923  50.0075 136.8754 0005387 280.8946  79.1354 14.06515715   238"
      },
      "geometry": {
        "type": "Point",
        "coordinates": [
          -93.4047471423277,
          40.92254537429703
        ]
      }
    },
    {
      "type": "Feature",
      "properties": {
        "norad_id": 66924,
        "name": "CZ-8A R/B",
        "group": "last-30-days",
        "lat": -20.929885060838647,
        "lon": 114.13682211385132,
        "alt_km": 835.2783092913996,
        "timestamp": "2025-12-08T19:31:47.637939+00:00",
        "meta_object_name": "CZ-8A R/B",
        "meta_object_id": "2025-285K",
        "meta_epoch": "2025-12-06T12:19:51.036960",
        "meta_mean_motion": 14.30448863,
        "meta_eccentricity": 0.0118852,
        "meta_inclination": 50.0062,
        "meta_ra_of_asc_node": 142.6566,
        "meta_arg_of_pericenter": 84.4915,
        "meta_mean_anomaly": 276.9544,
        "meta_ephemeris_type": 0,
        "meta_classification_type": "U",
        "meta_norad_cat_id": 66924,
        "meta_element_set_no": 999,
        "meta_rev_at_epoch": 3,
        "meta_bstar": 2.573e-05,
        "meta_mean_motion_dot": -9.5e-07,
        "meta_mean_motion_ddot": 0,
        "tle_line1": "1 66924U 25285K   25340.51378515 -.00000095  00000+0  25730-4 0  9993",
        "tle_line2": "2 66924  50.0062 142.6566 0118852  84.4915 276.9544 14.30448863    39"
      },
      "geometry": {
        "type": "Point",
        "coordinates": [
          114.13682211385132,
          -20.929885060838647
        ]
      }
    }
  ]
}